{{Infobox Planet  
| name=739 Mandeville (1913 QR)
| image=
| caption=
| discovery=yes 
| physical_characteristics=yes 
| bgcolour=#FFFFC0
| discoverer=[[乔尔·梅特卡夫|乔尔·梅特卡夫]]
| discovery_site=[[温彻斯特_(马萨诸塞州)|温彻斯特]]
| discovered=1913年2月7日
| mp_name=739
| alt_names=
| mp_category=[[小行星带|主带小行星]]
| epoch=2456400.5 (2013-Apr-18.0) TDB
| semimajor= 2.737749247655445AU
| perihelion=2.346998139100956AU
| aphelion=3.128500356209935AU
| eccentricity=.1427271357627514
| period=1654.584415129835天<br>4.53年
| inclination=20.65853933687894°
| asc_node=136.6231624221772°	
| arg_peri=45.34105766104649°
| mean_anomaly=15.83106953678333°
 | dimensions=
 | mean_radius=53.765千米
 | rotation=11.931小时
 | spectral_type=X
 | abs_magnitude=8.50
 | albedo=0.0608
}}
'''小行星739'''（739 Mandeville (1913 QR)），是[[乔尔·梅特卡夫|乔尔·梅特卡夫]]于1913年2月7日在美国[[马萨诸塞州|马萨诸塞州]][[温彻斯特_(马萨诸塞州)|温彻斯特]]发现的[[小行星带|主带小行星]]<ref>{{JPL Small Body|name=739}}</ref>。

== 参考资料==
{{Reflist}}

{{Minor Planet Number|[[小行星738|小行星738]]|[[小行星740|小行星740]]}}
{{beltasteroid-stub}}

[[Category:小行星带天体|Category:小行星带天体]]
[[Category:1913年发现的小行星|Category:1913年发现的小行星]]
[[Category:以地名命名的小行星|Category:以地名命名的小行星]]